OBJECT_NAME,OBJECT_ID,EPOCH,MEAN_MOTION,ECCENTRICITY,INCLINATION,RA_OF_ASC_NODE,ARG_OF_PERICENTER,MEAN_ANOMALY,EPHEMERIS_TYPE,CLASSIFICATION_TYPE,NORAD_CAT_ID,ELEMENT_SET_NO,REV_AT_EPOCH,BSTAR,MEAN_MOTION_DOT,MEAN_MOTION_DDOT
IONOSFERA-M 2,2024-199B,2026-06-16T14:17:01.414464,14.22757460,.00010705,98.7172,40.6842,39.3448,320.7807,0,U,61736,999,13074,.44697827E-4,.56E-6,0
BIOMASS,2025-090A,2026-06-16T11:42:46.710432,14.67536912,.0001363,98.0740,354.8153,93.2285,266.9075,0,U,63772,999,6058,.16228595E-3,.872E-5,0
GOSAT-GW (IBUKI GW),2025-141A,2026-06-16T15:28:21.833760,14.67555174,.00014167,98.0569,104.9706,83.5586,276.5780,0,U,64694,999,5176,.11728302E-3,.618E-5,0
IONOSFERA-M 3,2025-155A,2026-06-16T14:41:44.598336,14.21486354,.00009922,98.6024,129.5318,157.9712,202.1509,0,U,64876,999,4632,.33387722E-4,.3E-6,0
IONOSFERA-M 4,2025-155B,2026-06-16T13:50:33.419616,14.21488548,.00010234,98.6030,129.4145,119.9059,240.2220,0,U,64877,999,4631,.34834955E-4,.33E-6,0
MICROCARB,2025-156A,2026-06-16T11:17:00.109824,14.72324902,.00149578,97.9832,244.6202,274.7678,85.1821,0,U,64899,999,4786,.7602728E-4,.431E-5,0
CO3D 3,2025-156B,2026-06-16T14:17:07.270656,15.20207450,.00014775,97.4333,246.2967,132.9182,227.2178,0,U,64900,999,4944,.16708695E-3,.3552E-4,0
CO3D 4,2025-156C,2026-06-16T11:07:46.562304,15.20193539,.00002837,97.4332,246.1670,1.9274,358.1962,0,U,64901,999,4942,.1506382E-4,.259E-5,0
CO3D 2,2025-156D,2026-06-16T13:29:19.762656,15.20192630,.00014862,97.4332,246.1629,106.4607,253.6792,0,U,64902,999,4943,.1870858E-3,.3983E-4,0
CO3D 1,2025-156E,2026-06-16T13:29:32.854848,15.20191834,.00012541,97.4332,246.1633,110.1143,250.0227,0,U,64903,999,4943,.21890871E-3,.4673E-4,0
PRSC-S1,2025-164A,2026-06-16T14:25:24.462912,15.06454305,.00066892,41.1313,291.1144,340.1002,19.9550,0,U,65055,999,4834,.27358844E-3,.3933E-4,0
SENTINEL-6B,2025-264A,2026-06-16T07:19:18.234624,12.80929973,.00080193,66.0395,137.0107,269.2242,90.7855,0,U,66514,999,2705,-.46907243E-4,-.72E-6,0
CAS500-3,2025-274F,2026-06-16T13:01:49.081152,14.88319695,.00067481,97.7446,95.6086,111.7630,248.4306,0,U,66655,999,3005,.11924245E-3,.1049E-4,0
CSG-3,2026-001A,2026-06-16T12:34:27.763680,14.82153436,.00013627,97.8887,351.1353,94.6208,265.5161,0,U,67304,999,2436,.37203976E-4,.244E-5,0
PRSC-E03,2026-092A,2026-06-16T06:14:57.275232,15.06664530,.00039,38.0006,95.1452,357.0625,3.0113,0,U,68835,999,781,.15628E-3,.2254E-4,0
CAS500-2,2026-100AK,2026-06-16T10:16:46.614720,15.20583051,.0010786,97.4078,65.2966,37.2681,322.9301,0,U,69013,999,669,.23158805E-3,.5012E-4,0
