IONOSFERA-M 2           
1 61736U 24199B   26167.59515526  .00000056  00000+0  44698-4 0  9993
2 61736  98.7172  40.6842 0001070  39.3448 320.7807 14.22757460130742
BIOMASS                 
1 63772U 25090A   26167.48804063  .00000872  00000+0  16229-3 0  9995
2 63772  98.0740 354.8153 0001363  93.2285 266.9075 14.67536912 60584
GOSAT-GW (IBUKI GW)     
1 64694U 25141A   26167.64469715  .00000618  00000+0  11728-3 0  9992
2 64694  98.0569 104.9706 0001416  83.5586 276.5780 14.67555174 51761
IONOSFERA-M 3           
1 64876U 25155A   26167.61232174  .00000030  00000+0  33388-4 0  9998
2 64876  98.6024 129.5318 0000992 157.9712 202.1509 14.21486354 46325
IONOSFERA-M 4           
1 64877U 25155B   26167.57677569  .00000033  00000+0  34835-4 0  9996
2 64877  98.6030 129.4145 0001023 119.9059 240.2220 14.21488548 46317
MICROCARB               
1 64899U 25156A   26167.47014016  .00000431  00000+0  76027-4 0  9993
2 64899  97.9832 244.6202 0014957 274.7678  85.1821 14.72324902 47867
CO3D 3                  
1 64900U 25156B   26167.59522304  .00003552  00000+0  16709-3 0  9990
2 64900  97.4333 246.2967 0001477 132.9182 227.2178 15.20207450 49447
CO3D 4                  
1 64901U 25156C   26167.46373336  .00000259  00000+0  15064-4 0  9991
2 64901  97.4332 246.1670 0000283   1.9274 358.1962 15.20193539 49423
CO3D 2                  
1 64902U 25156D   26167.56203429  .00003983  00000+0  18709-3 0  9993
2 64902  97.4332 246.1629 0001486 106.4607 253.6792 15.20192630 49437
CO3D 1                  
1 64903U 25156E   26167.56218582  .00004673  00000+0  21891-3 0  9993
2 64903  97.4332 246.1633 0001254 110.1143 250.0227 15.20191834 49432
PRSC-S1                 
1 65055U 25164A   26167.60097758  .00003933  00000+0  27359-3 0  9999
2 65055  41.1313 291.1144 0006689 340.1002  19.9550 15.06454305 48348
SENTINEL-6B             
1 66514U 25264A   26167.30507216 -.00000072  00000+0 -46907-4 0  9997
2 66514  66.0395 137.0107 0008019 269.2242  90.7855 12.80929973 27055
CAS500-3                
1 66655U 25274F   26167.54292918  .00001049  00000+0  11924-3 0  9993
2 66655  97.7446  95.6086 0006748 111.7630 248.4306 14.88319695 30054
CSG-3                   
1 67304U 26001A   26167.52393245  .00000244  00000+0  37204-4 0  9993
2 67304  97.8887 351.1353 0001362  94.6208 265.5161 14.82153436 24369
PRSC-E03                
1 68835U 26092A   26167.26038513  .00002254  00000+0  15628-3 0  9996
2 68835  38.0006  95.1452 0003900 357.0625   3.0113 15.06664530  7815
CAS500-2                
1 69013U 26100AK  26167.42831730  .00005012  00000+0  23159-3 0  9998
2 69013  97.4078  65.2966 0010786  37.2681 322.9301 15.20583051  6690
